NORAD_CAT_ID,OBJECT_NAME,OBJECT_TYPE,EPOCH,MEAN_MOTION,ECCENTRICITY,INCLINATION,RA_OF_ASC_NODE,ARG_OF_PERICENTER,MEAN_ANOMALY,BSTAR,MEAN_MOTION_DOT,MEAN_MOTION_DDOT,TLE_LINE0,TLE_LINE1,TLE_LINE2,SEMIMAJOR_AXIS,PERIOD,APOGEE,PERIGEE,DECAYED
52271.0,STARLINK-3788,PAYLOAD,2023-07-07 09:03:30,15.08851649,0.0001179,53.2155,171.9569,81.8794,278.2331,0.0002823,4.209e-05,0.0,0 STARLINK-3788,1 52271U 22041L   23188.37744182  .00004209  00000-0  28230-3 0  9997,2 52271  53.2155 171.9569 0001179  81.8794 278.2331 15.08851649 68190,6917.845,95.437,540.525,538.894,0.0
52271.0,STARLINK-3788,PAYLOAD,2023-07-08 15:15:49,15.08847567,0.000151,53.2155,166.306,76.9707,283.1454,-1.8179e-05,-5.77e-06,0.0,0 STARLINK-3788,1 52271U 22041L   23189.63599425 -.00000577  00000-0 -18179-4 0  9993,2 52271  53.2155 166.3060 0001510  76.9707 283.1454 15.08847567 68388,6917.857,95.437,540.767,538.678,0.0
52271.0,STARLINK-3788,PAYLOAD,2023-07-09 08:45:04,15.08837768,0.0001523,53.2164,163.0348,79.6161,280.5003,-0.00014183,-2.544e-05,0.0,0 STARLINK-3788,1 52271U 22041L   23190.36463805 -.00002544  00000-0 -14183-3 0  9993,2 52271  53.2164 163.0348 0001523  79.6161 280.5003 15.08837768 68494,6917.887,95.438,540.806,538.699,0.0
52271.0,STARLINK-3788,PAYLOAD,2023-07-10 02:14:18,15.08843715,0.0001489,53.2173,159.7639,88.6337,271.4826,-1.4494e-05,-5.19e-06,0.0,0 STARLINK-3788,1 52271U 22041L   23191.09327372 -.00000519  00000-0 -14494-4 0  9998,2 52271  53.2173 159.7639 0001489  88.6337 271.4826 15.08843715 68609,6917.869,95.437,540.764,538.704,0.0
52271.0,STARLINK-3788,PAYLOAD,2023-07-11 06:51:15,15.08841922,0.0001208,53.2171,154.4118,89.5126,270.6005,0.0001423,1.978e-05,0.0,0 STARLINK-3788,1 52271U 22041L   23192.28559483  .00001978  00000-0  14230-3 0  9995,2 52271  53.2171 154.4118 0001208  89.5126 270.6005 15.08841922 68783,6917.875,95.437,540.575,538.904,0.0
52271.0,STARLINK-3788,PAYLOAD,2023-07-12 14:38:57,15.08846337,0.0001139,53.2161,148.4651,97.9117,262.2004,7.7722e-05,9.5e-06,0.0,0 STARLINK-3788,1 52271U 22041L   23193.61039156  .00000950  00000-0  77722-4 0  9998,2 52271  53.2161 148.4651 0001139  97.9117 262.2004 15.08846337 68986,6917.861,95.437,540.514,538.938,0.0
52271.0,STARLINK-3788,PAYLOAD,2023-07-13 03:22:03,15.08838441,0.0001434,53.2165,146.0846,103.327,256.7882,0.00019835,2.87e-05,0.0,0 STARLINK-3788,1 52271U 22041L   23194.14031291  .00002870  00000-0  19835-3 0  9992,2 52271  53.2165 146.0846 0001434 103.3270 256.7882 15.08838441 69069,6917.885,95.438,540.742,538.758,0.0
52271.0,STARLINK-3788,PAYLOAD,2023-07-14 03:12:50,15.08834768,0.0001241,53.2179,141.6272,84.3399,275.7734,-1.435e-05,-5.16e-06,0.0,0 STARLINK-3788,1 52271U 22041L   23195.13392332 -.00000516  00000-0 -14350-4 0  9993,2 52271  53.2179 141.6272 0001241  84.3399 275.7734 15.08834768 69216,6917.896,95.438,540.62,538.903,0.0
52271.0,STARLINK-3788,PAYLOAD,2023-07-15 01:28:14,15.08846982,0.000127,53.2176,137.4662,89.5426,270.5712,0.0001546,2.174e-05,0.0,0 STARLINK-3788,1 52271U 22041L   23196.06127323  .00002174  00000-0  15460-3 0  9994,2 52271  53.2176 137.4662 0001270  89.5426 270.5712 15.08846982 69354,6917.859,95.437,540.603,538.845,0.0
52271.0,STARLINK-3788,PAYLOAD,2023-07-16 02:54:24,15.08841039,0.0001279,53.2166,132.7064,96.413,263.7008,0.00013072,1.793e-05,0.0,0 STARLINK-3788,1 52271U 22041L   23197.12112004  .00001793  00000-0  13072-3 0  9995,2 52271  53.2166 132.7064 0001279  96.4130 263.7008 15.08841039 69513,6917.877,95.437,540.627,538.857,0.0
52271.0,STARLINK-3788,PAYLOAD,2023-07-16 20:23:39,15.08839414,0.0001335,53.2173,129.4349,100.6468,259.4675,-3.1255e-05,-7.85e-06,0.0,0 STARLINK-3788,1 52271U 22041L   23197.84976043 -.00000785  00000-0 -31255-4 0  9991,2 52271  53.2173 129.4349 0001335 100.6468 259.4675 15.08839414 69623,6917.882,95.438,540.671,538.824,0.0
52271.0,STARLINK-3788,PAYLOAD,2023-07-17 23:25:12,15.08848936,0.0001421,53.2177,124.3814,99.5519,260.5633,0.00027395,4.076e-05,0.0,0 STARLINK-3788,1 52271U 22041L   23198.97583947  .00004076  00000-0  27395-3 0  9997,2 52271  53.2177 124.3814 0001421  99.5519 260.5633 15.08848936 69791,6917.853,95.437,540.701,538.735,0.0
52271.0,STARLINK-3788,PAYLOAD,2023-07-19 02:26:46,15.08838457,0.0001235,53.2166,119.3249,94.9705,265.1428,5.6123e-05,6.05e-06,0.0,0 STARLINK-3788,1 52271U 22041L   23200.10192445  .00000605  00000-0  56123-4 0  9991,2 52271  53.2166 119.3249 0001235  94.9705 265.1428 15.08838457 69963,6917.885,95.438,540.604,538.896,0.0
52271.0,STARLINK-3788,PAYLOAD,2023-07-21 02:08:20,15.08842555,0.0001278,53.2167,110.4038,88.3864,271.7275,0.0002131,3.105e-05,0.0,0 STARLINK-3788,1 52271U 22041L   23202.08912769  .00003105  00000-0  21310-3 0  9996,2 52271  53.2167 110.4038 0001278  88.3864 271.7275 15.08842555 70264,6917.873,95.437,540.622,538.853,0.0
52271.0,STARLINK-3788,PAYLOAD,2023-07-24 01:40:42,15.08833763,0.0001339,53.2174,97.0226,103.9202,256.1939,-6.357e-05,-1.299e-05,0.0,0 STARLINK-3788,1 52271U 22041L   23205.06993213 -.00001299  00000-0 -63570-4 0  9999,2 52271  53.2174  97.0226 0001339 103.9202 256.1939 15.08833763 69497,6917.899,95.438,540.691,538.838,0.0
52271.0,STARLINK-3788,PAYLOAD,2023-07-25 03:06:51,15.0885211,0.0001326,53.217,92.2656,108.4865,251.6271,0.00030609,4.588e-05,0.0,0 STARLINK-3788,1 52271U 22041L   23206.12976572  .00004588  00000-0  30609-3 0  9994,2 52271  53.2170  92.2656 0001326 108.4865 251.6271 15.08852110 69652,6917.843,95.437,540.626,538.791,0.0
52271.0,STARLINK-3788,PAYLOAD,2023-07-25 23:46:53,15.08835269,9.78e-05,53.2169,88.3957,117.5009,242.6083,3.8974e-05,3.33e-06,0.0,0 STARLINK-3788,1 52271U 22041L   23206.99089411  .00000333  00000-0  38974-4 0  9994,2 52271  53.2169  88.3957 0000978 117.5009 242.6083 15.08835269 69784,6917.895,95.438,540.436,539.083,0.0
52271.0,STARLINK-3788,PAYLOAD,2023-07-26 22:02:16,15.08853316,0.0001042,53.2165,84.2362,86.5113,273.5999,0.00025203,3.727e-05,0.0,0 STARLINK-3788,1 52271U 22041L   23207.91824575  .00003727  00000-0  25203-3 0  9995,2 52271  53.2165  84.2362 0001042  86.5113 273.5999 15.08853316 69927,6917.84,95.437,540.426,538.984,0.0
52271.0,STARLINK-3788,PAYLOAD,2023-07-27 01:13:02,15.08865952,0.0001134,53.2168,83.6417,92.7975,267.3147,0.00052423,8.071e-05,0.0,0 STARLINK-3788,1 52271U 22041L   23208.05072188  .00008071  00000-0  52423-3 0  9997,2 52271  53.2168  83.6417 0001134  92.7975 267.3147 15.08865952 71165,6917.801,95.436,540.451,538.882,0.0
52271.0,STARLINK-3788,PAYLOAD,2023-07-27 09:09:58,15.08842887,9.17e-05,53.2158,82.1551,103.0268,257.0826,7.8862e-05,9.68e-06,0.0,0 STARLINK-3788,1 52271U 22041L   23208.38192982  .00000968  00000-0  78862-4 0  9991,2 52271  53.2158  82.1551 0000917 103.0268 257.0826 15.08842887 71214,6917.872,95.437,540.371,539.102,0.0
52271.0,STARLINK-3788,PAYLOAD,2023-07-27 21:53:04,15.08829582,0.0001085,53.2165,79.7742,104.7135,255.3977,-9.0929e-05,-1.734e-05,0.0,0 STARLINK-3788,1 52271U 22041L   23208.91185773 -.00001734  00000-0 -90929-4 0  9992,2 52271  53.2165  79.7742 0001085 104.7135 255.3977 15.08829582 70072,6917.912,95.438,540.528,539.027,0.0
52271.0,STARLINK-3788,PAYLOAD,2023-07-27 23:28:27,15.08830214,0.0001084,53.2167,79.4771,103.1401,256.9712,-7.8632e-05,-1.539e-05,0.0,0 STARLINK-3788,1 52271U 22041L   23208.97809797 -.00001539  00000-0 -78632-4 0  9997,2 52271  53.2167  79.4771 0001084 103.1401 256.9712 15.08830214 71306,6917.91,95.438,540.525,539.025,0.0
52271.0,STARLINK-3788,PAYLOAD,2023-07-29 00:54:37,15.08846581,0.0001146,53.2176,74.7214,103.2116,256.9004,0.00044183,6.752e-05,0.0,0 STARLINK-3788,1 52271U 22041L   23210.03793675  .00006752  00000-0  44183-3 0  9997,2 52271  53.2176  74.7214 0001146 103.2116 256.9004 15.08846581 71464,6917.86,95.437,540.518,538.932,0.0
52271.0,STARLINK-3788,PAYLOAD,2023-07-29 18:23:52,15.08848808,0.0001079,53.2175,71.4506,103.2704,256.8409,0.00041652,6.349e-05,0.0,0 STARLINK-3788,1 52271U 22041L   23210.76657668  .00006349  00000-0  41652-3 0  9998,2 52271  53.2175  71.4506 0001079 103.2704 256.8409 15.08848808 71573,6917.853,95.437,540.465,538.972,0.0
52271.0,STARLINK-3788,PAYLOAD,2023-07-30 00:45:24,15.08860915,0.0001163,53.2179,70.2616,100.7027,259.4096,0.00060536,9.365e-05,0.0,0 STARLINK-3788,1 52271U 22041L   23211.03153181  .00009365  00000-0  60536-3 0  9993,2 52271  53.2179  70.2616 0001163 100.7027 259.4096 15.08860915 71619,6917.816,95.436,540.486,538.877,0.0
52271.0,STARLINK-3788,PAYLOAD,2023-07-30 18:14:39,15.08841916,0.0001146,53.2178,66.9909,112.0012,248.1102,-2.2787e-05,-6.5e-06,0.0,0 STARLINK-3788,1 52271U 22041L   23211.76017422 -.00000650  00000-0 -22787-4 0  9997,2 52271  53.2178  66.9909 0001146 112.0012 248.1102 15.08841916 71721,6917.875,95.437,540.532,538.947,0.0
52271.0,STARLINK-3788,PAYLOAD,2023-07-31 21:16:12,15.08839219,0.0001222,53.2181,61.9368,112.4228,247.6894,1.3394e-05,-7.5e-07,0.0,0 STARLINK-3788,1 52271U 22041L   23212.88625554 -.00000075  00000-0  13394-4 0  9996,2 52271  53.2181  61.9368 0001222 112.4228 247.6894 15.08839219 71890,6917.883,95.438,540.593,538.902,0.0
52271.0,STARLINK-3788,PAYLOAD,2023-08-02 00:17:45,15.08850435,9.13e-05,53.2162,56.8796,97.4932,262.6163,0.00054854,8.455e-05,0.0,0 STARLINK-3788,1 52271U 22041L   23214.01233710  .00008455  00000-0  54854-3 0  9996,2 52271  53.2162  56.8796 0000913  97.4932 262.6163 15.08850435 72066,6917.848,95.437,540.345,539.082,0.0
52271.0,STARLINK-3788,PAYLOAD,2023-08-02 06:39:18,15.08844908,9.56e-05,53.2165,55.6894,88.9514,271.1588,0.00029027,4.335e-05,0.0,0 STARLINK-3788,1 52271U 22041L   23214.27729742  .00004335  00000-0  29027-3 0  9996,2 52271  53.2165  55.6894 0000956  88.9514 271.1588 15.08844908 72102,6917.865,95.437,540.392,539.069,0.0
52271.0,STARLINK-3788,PAYLOAD,2023-08-03 17:37:47,15.0884055,0.0001065,53.217,49.1483,72.2894,287.8214,8.4014e-05,1.05e-05,0.0,0 STARLINK-3788,1 52271U 22041L   23215.73458056  .00001050  00000-0  84014-4 0  9994,2 52271  53.2170  49.1483 0001065  72.2894 287.8214 15.08840550 72322,6917.879,95.438,540.48,539.007,0.0
